NORAD_CAT_ID,OBJECT_NAME,OBJECT_TYPE,EPOCH,MEAN_MOTION,ECCENTRICITY,INCLINATION,RA_OF_ASC_NODE,ARG_OF_PERICENTER,MEAN_ANOMALY,BSTAR,MEAN_MOTION_DOT,MEAN_MOTION_DDOT,TLE_LINE0,TLE_LINE1,TLE_LINE2,SEMIMAJOR_AXIS,PERIOD,APOGEE,PERIGEE,DECAYED
54808.0,STARLINK-5413,PAYLOAD,2024-06-19 02:30:06,15.0884722,0.0001344,53.219,316.1218,85.88,274.2345,0.00020288,2.943e-05,0.0,0 STARLINK-5413,1 54808U 22175BC  24171.10424629  .00002943  00000-0  20288-3 0  9996,2 54808  53.2190 316.1218 0001344  85.8800 274.2345 15.08847220 83285,6917.858,95.437,540.653,538.794,0.0
54808.0,STARLINK-5413,PAYLOAD,2024-06-19 18:23:58,15.0883561,0.0001518,53.2183,313.15,92.2218,267.8948,5.8778e-05,6.47e-06,0.0,0 STARLINK-5413,1 54808U 22175BC  24171.76665432  .00000647  00000-0  58778-4 0  9992,2 54808  53.2183 313.1500 0001518  92.2218 267.8948 15.08835610 83384,6917.894,95.438,540.809,538.709,0.0
54808.0,STARLINK-5413,PAYLOAD,2024-06-20 02:20:54,15.0884651,0.0001345,53.218,311.6629,87.6495,272.4651,0.00019371,2.797e-05,0.0,0 STARLINK-5413,1 54808U 22175BC  24172.09784852  .00002797  00000-0  19371-3 0  9990,2 54808  53.2180 311.6629 0001345  87.6495 272.4651 15.08846510 83439,6917.86,95.437,540.656,538.795,0.0
54808.0,STARLINK-5413,PAYLOAD,2024-06-20 13:28:36,15.0883804,0.000208,53.2188,309.5803,75.5793,284.543,9.9034e-05,1.288e-05,0.0,0 STARLINK-5413,1 54808U 22175BC  24172.56153665  .00001288  00000-0  99034-4 0  9993,2 54808  53.2188 309.5803 0002080  75.5793 284.5430 15.08838040 85666,6917.886,95.438,541.19,538.312,0.0
54808.0,STARLINK-5413,PAYLOAD,2024-06-20 18:14:45,15.08841453,0.000132,53.2187,308.6894,80.6572,279.4569,0.00010936,1.453e-05,0.0,0 STARLINK-5413,1 54808U 22175BC  24172.76025324  .00001453  00000-0  10936-3 0  9992,2 54808  53.2187 308.6894 0001320  80.6572 279.4569 15.08841453 83535,6917.876,95.437,540.654,538.828,0.0
54808.0,STARLINK-5413,PAYLOAD,2024-06-21 13:19:23,15.08836379,0.0001375,53.219,305.1211,83.1869,276.9279,0.00013171,1.809e-05,0.0,0 STARLINK-5413,1 54808U 22175BC  24173.55513860  .00001809  00000-0  13171-3 0  9996,2 54808  53.2190 305.1211 0001375  83.1869 276.9279 15.08836379 83655,6917.891,95.438,540.708,538.805,0.0
54808.0,STARLINK-5413,PAYLOAD,2024-06-21 16:30:10,15.08839059,0.0001292,53.2184,304.5264,82.3712,277.7426,6.4702e-05,7.42e-06,0.0,0 STARLINK-5413,1 54808U 22175BC  24173.68761750  .00000742  00000-0  64702-4 0  9995,2 54808  53.2184 304.5264 0001292  82.3712 277.7426 15.08839059 85838,6917.883,95.438,540.642,538.854,0.0
54808.0,STARLINK-5413,PAYLOAD,2024-06-22 13:10:11,15.08840926,0.0001366,53.2187,300.6609,80.1289,279.9857,0.00019499,2.817e-05,0.0,0 STARLINK-5413,1 54808U 22175BC  24174.54873924  .00002817  00000-0  19499-3 0  9995,2 54808  53.2187 300.6609 0001366  80.1289 279.9857 15.08840926 85969,6917.878,95.437,540.688,538.798,0.0
54808.0,STARLINK-5413,PAYLOAD,2024-06-22 14:45:34,15.08842964,0.0001237,53.218,300.3624,87.0124,273.101,0.00016765,2.381e-05,0.0,0 STARLINK-5413,1 54808U 22175BC  24174.61497747  .00002381  00000-0  16765-3 0  9997,2 54808  53.2180 300.3624 0001237  87.0124 273.1010 15.08842964 83810,6917.871,95.437,540.592,538.881,0.0
54808.0,STARLINK-5413,PAYLOAD,2024-06-23 14:36:21,15.08844536,0.0001216,53.2178,295.9024,86.1304,273.9827,0.00018816,2.708e-05,0.0,0 STARLINK-5413,1 54808U 22175BC  24175.60857701  .00002708  00000-0  18816-3 0  9999,2 54808  53.2178 295.9024 0001216  86.1304 273.9827 15.08844536 86125,6917.867,95.437,540.573,538.89,0.0
54808.0,STARLINK-5413,PAYLOAD,2024-06-23 17:47:07,15.08846987,0.0001175,53.2175,295.3071,90.9401,269.1726,0.00021112,3.074e-05,0.0,0 STARLINK-5413,1 54808U 22175BC  24175.74105520  .00003074  00000-0  21112-3 0  9999,2 54808  53.2175 295.3071 0001175  90.9401 269.1726 15.08846987 83981,6917.859,95.437,540.537,538.911,0.0
54808.0,STARLINK-5413,PAYLOAD,2024-06-24 12:51:44,15.0884372,0.0001202,53.2174,291.7374,90.5553,269.5577,6.8576e-05,8.04e-06,0.0,0 STARLINK-5413,1 54808U 22175BC  24176.53593511  .00000804  00000-0  68576-4 0  9992,2 54808  53.2174 291.7374 0001202  90.5553 269.5577 15.08843720 84106,6917.869,95.437,540.566,538.902,0.0
54808.0,STARLINK-5413,PAYLOAD,2024-06-24 14:27:07,15.08844225,0.0001203,53.2181,291.4398,94.4633,265.6497,6.3781e-05,7.27e-06,0.0,0 STARLINK-5413,1 54808U 22175BC  24176.60217450  .00000727  00000-0  63781-4 0  9992,2 54808  53.2181 291.4398 0001203  94.4633 265.6497 15.08844225 86279,6917.867,95.437,540.565,538.9,0.0
54808.0,STARLINK-5413,PAYLOAD,2024-06-25 12:42:32,15.08838514,0.0001238,53.2182,287.276,91.8903,268.2231,3.8551e-05,3.26e-06,0.0,0 STARLINK-5413,1 54808U 22175BC  24177.52953806  .00000326  00000-0  38551-4 0  9998,2 54808  53.2182 287.2760 0001238  91.8903 268.2231 15.08838514 84250,6917.885,95.438,540.606,538.893,0.0
54808.0,STARLINK-5413,PAYLOAD,2024-06-25 14:17:55,15.08839143,0.000126,53.2182,286.9786,95.0003,265.1133,4.0167e-05,3.51e-06,0.0,0 STARLINK-5413,1 54808U 22175BC  24177.59577734  .00000351  00000-0  40167-4 0  9991,2 54808  53.2182 286.9786 0001260  95.0003 265.1133 15.08839143 86423,6917.883,95.438,540.62,538.876,0.0
54808.0,STARLINK-5413,PAYLOAD,2024-06-25 15:53:18,15.08839552,0.0001365,53.2186,286.6816,106.2284,253.8859,3.8889e-05,3.31e-06,0.0,0 STARLINK-5413,1 54808U 22175BC  24177.66201657  .00000331  00000-0  38889-4 0  9993,2 54808  53.2186 286.6816 0001365 106.2284 253.8859 15.08839552 86434,6917.882,95.438,540.691,538.802,0.0
54808.0,STARLINK-5413,PAYLOAD,2024-06-26 10:57:54,15.08854156,0.0001263,53.2176,283.1161,85.9749,274.1388,0.00020716,3.012e-05,0.0,0 STARLINK-5413,1 54808U 22175BC  24178.45688082  .00003012  00000-0  20716-3 0  9990,2 54808  53.2176 283.1161 0001263  85.9749 274.1388 15.08854156 84397,6917.837,95.437,540.576,538.828,0.0
54808.0,STARLINK-5413,PAYLOAD,2024-06-27 12:24:06,15.08829321,0.000129,53.2161,278.3612,65.7119,294.4007,-0.00017087,-3.005e-05,0.0,0 STARLINK-5413,1 54808U 22175BC  24179.51674285 -.00003005  00000-0 -17087-3 0  9999,2 54808  53.2161 278.3612 0001290  65.7119 294.4007 15.08829321 84552,6917.913,95.438,540.67,538.886,0.0
54808.0,STARLINK-5413,PAYLOAD,2024-06-27 13:59:29,15.08830172,0.0001492,53.217,278.0599,67.5986,292.5165,-5.8283e-05,-1.215e-05,0.0,0 STARLINK-5413,1 54808U 22175BC  24179.58298338 -.00001215  00000-0 -58283-4 0  9992,2 54808  53.2170 278.0599 0001492  67.5986 292.5165 15.08830172 86720,6917.91,95.438,540.808,538.743,0.0
54808.0,STARLINK-5413,PAYLOAD,2024-06-27 23:31:48,15.08840023,0.0001406,53.2172,276.2757,90.9388,269.1766,7.7051e-05,9.39e-06,0.0,0 STARLINK-5413,1 54808U 22175BC  24179.98041865  .00000939  00000-0  77051-4 0  9991,2 54808  53.2172 276.2757 0001406  90.9388 269.1766 15.08840023 84629,6917.88,95.438,540.718,538.773,0.0
54808.0,STARLINK-5413,PAYLOAD,2024-06-28 13:50:15,15.08854944,0.00012,53.2147,273.5987,107.2435,252.8689,0.00021251,3.097e-05,0.0,0 STARLINK-5413,1 54808U 22175BC  24180.57656671  .00003097  00000-0  21251-3 0  9993,2 54808  53.2147 273.5987 0001200 107.2435 252.8689 15.08854944 86872,6917.835,95.437,540.53,538.87,0.0
54808.0,STARLINK-5413,PAYLOAD,2024-06-29 12:05:41,15.08818762,0.0001252,53.2147,269.4385,71.3897,288.7231,-0.00021718,-3.741e-05,0.0,0 STARLINK-5413,1 54808U 22175BC  24181.50395208 -.00003741  00000-0 -21718-3 0  9999,2 54808  53.2147 269.4385 0001252  71.3897 288.7231 15.08818762 84853,6917.945,95.439,540.676,538.944,0.0
54808.0,STARLINK-5413,PAYLOAD,2024-06-29 13:41:04,15.08821737,0.0001286,53.2151,269.1407,72.4918,287.6214,-0.00016458,-2.905e-05,0.0,0 STARLINK-5413,1 54808U 22175BC  24181.57019132 -.00002905  00000-0 -16458-3 0  9991,2 54808  53.2151 269.1407 0001286  72.4918 287.6214 15.08821737 87020,6917.936,95.439,540.691,538.912,0.0
54808.0,STARLINK-5413,PAYLOAD,2024-06-30 05:34:55,15.0883488,0.0001252,53.2155,266.166,72.7707,287.3422,0.0001467,2.047e-05,0.0,0 STARLINK-5413,1 54808U 22175BC  24182.23258845  .00002047  00000-0  14670-3 0  9990,2 54808  53.2155 266.1660 0001252  72.7707 287.3422 15.08834880 84965,6917.896,95.438,540.627,538.895,0.0
54808.0,STARLINK-5413,PAYLOAD,2024-06-30 11:56:28,15.08842297,0.0001441,53.2147,264.9771,65.1472,294.967,0.00086323,0.00013478,0.0,0 STARLINK-5413,1 54808U 22175BC  24182.49755061  .00013478  00000-0  86323-3 0  9994,2 54808  53.2147 264.9771 0001441  65.1472 294.9670 15.08842297 87165,6917.873,95.437,540.735,538.742,0.0
54808.0,STARLINK-5413,PAYLOAD,2024-07-01 11:47:15,15.0884591,0.0001579,53.2151,260.5155,73.749,286.3676,0.00026204,3.885e-05,0.0,0 STARLINK-5413,1 54808U 22175BC  24183.49114840  .00003885  00000-0  26204-3 0  9992,2 54808  53.2151 260.5155 0001579  73.7490 286.3676 15.08845910 85158,6917.862,95.437,540.82,538.635,0.0
54808.0,STARLINK-5413,PAYLOAD,2024-07-01 14:58:01,15.08842585,0.0001452,53.2167,259.921,71.2988,288.8161,0.00027238,4.05e-05,0.0,0 STARLINK-5413,1 54808U 22175BC  24183.62362969  .00004050  00000-0  27238-3 0  9997,2 54808  53.2167 259.9210 0001452  71.2988 288.8161 15.08842585 87337,6917.872,95.437,540.742,538.733,0.0
54808.0,STARLINK-5413,PAYLOAD,2024-07-02 05:16:29,15.08840843,0.0001357,53.2172,257.2427,76.5776,283.5368,0.0001062,1.403e-05,0.0,0 STARLINK-5413,1 54808U 22175BC  24184.21978880  .00001403  00000-0  10620-3 0  9994,2 54808  53.2172 257.2427 0001357  76.5776 283.5368 15.08840843 85267,6917.878,95.438,540.682,538.804,0.0
54808.0,STARLINK-5413,PAYLOAD,2024-07-02 10:02:39,15.08838525,0.0001375,53.2167,256.3512,74.4886,285.6258,4.7062e-05,4.61e-06,0.0,0 STARLINK-5413,1 54808U 22175BC  24184.41851011  .00000461  00000-0  47062-4 0  9996,2 54808  53.2167 256.3512 0001375  74.4886 285.6258 15.08838525 87453,6917.885,95.438,540.701,538.799,0.0
54808.0,STARLINK-5413,PAYLOAD,2024-07-02 14:48:48,15.08841187,0.0001313,53.2165,255.4593,72.8716,287.242,-1.8601e-05,-5.84e-06,0.0,0 STARLINK-5413,1 54808U 22175BC  24184.61723028 -.00000584  00000-0 -18601-4 0  9999,2 54808  53.2165 255.4593 0001313  72.8716 287.2420 15.08841187 87486,6917.877,95.437,540.65,538.833,0.0
